NORAD_CAT_ID,OBJECT_NAME,OBJECT_TYPE,EPOCH,MEAN_MOTION,ECCENTRICITY,INCLINATION,RA_OF_ASC_NODE,ARG_OF_PERICENTER,MEAN_ANOMALY,BSTAR,MEAN_MOTION_DOT,MEAN_MOTION_DDOT,TLE_LINE0,TLE_LINE1,TLE_LINE2,SEMIMAJOR_AXIS,PERIOD,APOGEE,PERIGEE,DECAYED
50820.0,STARLINK-3339,PAYLOAD,2024-06-13 15:13:28,15.08844425,0.0001352,53.2171,135.5061,79.3943,280.7201,0.00011894,1.606e-05,0.0,0 STARLINK-3339,1 50820U 22001T   24165.63435661  .00001606  00000-0  11894-3 0  9991,2 50820  53.2171 135.5061 0001352  79.3943 280.7201 15.08844425134686,6917.867,95.437,540.667,538.797,0.0
50820.0,STARLINK-3339,PAYLOAD,2024-06-14 05:31:57,15.08838158,0.0001368,53.2175,132.8301,84.7915,275.3234,5.9182e-05,6.54e-06,0.0,0 STARLINK-3339,1 50820U 22001T   24166.23052386  .00000654  00000-0  59182-4 0  9992,2 50820  53.2175 132.8301 0001368  84.7915 275.3234 15.08838158134775,6917.886,95.438,540.697,538.805,0.0
50820.0,STARLINK-3339,PAYLOAD,2024-06-14 15:04:15,15.08842255,0.0001388,53.2176,131.0463,84.8626,275.2525,6.626e-05,7.67e-06,0.0,0 STARLINK-3339,1 50820U 22001T   24166.62796100  .00000767  00000-0  66260-4 0  9994,2 50820  53.2176 131.0463 0001388  84.8626 275.2525 15.08842255134830,6917.873,95.437,540.699,538.778,0.0
50820.0,STARLINK-3339,PAYLOAD,2024-06-15 03:47:20,15.08843027,0.0001475,53.2177,128.6687,81.4421,278.6739,1.6221e-05,-3e-07,0.0,0 STARLINK-3339,1 50820U 22001T   24167.15788187 -.00000030  00000-0  16221-4 0  9995,2 50820  53.2177 128.6687 0001475  81.4421 278.6739 15.08843027134915,6917.871,95.437,540.757,538.716,0.0
50820.0,STARLINK-3339,PAYLOAD,2024-06-15 14:55:02,15.08850544,0.0001488,53.2182,126.5839,89.7816,270.3347,4.4747e-05,4.24e-06,0.0,0 STARLINK-3339,1 50820U 22001T   24167.62155382  .00000424  00000-0  44747-4 0  9992,2 50820  53.2182 126.5839 0001488  89.7816 270.3347 15.08850544134983,6917.848,95.437,540.743,538.684,0.0
50820.0,STARLINK-3339,PAYLOAD,2024-06-16 03:38:08,15.08834473,0.0001639,53.2195,124.2039,102.0844,258.0332,-1.9208e-05,-5.94e-06,0.0,0 STARLINK-3339,1 50820U 22001T   24168.15148535 -.00000594  00000-0 -19208-4 0  9997,2 50820  53.2195 124.2039 0001639 102.0844 258.0332 15.08834473135062,6917.897,95.438,540.896,538.628,0.0
50820.0,STARLINK-3339,PAYLOAD,2024-06-17 06:39:41,15.08838082,0.0001325,53.2188,119.1503,96.4684,263.6459,-7.0276e-05,-1.406e-05,0.0,0 STARLINK-3339,1 50820U 22001T   24169.27756771 -.00001406  00000-0 -70276-4 0  9993,2 50820  53.2188 119.1503 0001325  96.4684 263.6459 15.08838082135234,6917.886,95.438,540.668,538.835,0.0
50820.0,STARLINK-3339,PAYLOAD,2024-06-18 12:52:00,15.08843888,0.0001158,53.2175,113.502,91.5299,268.5826,0.00011863,1.601e-05,0.0,0 STARLINK-3339,1 50820U 22001T   24170.53611962  .00001601  00000-0  11863-3 0  9997,2 50820  53.2175 113.5020 0001158  91.5299 268.5826 15.08843888136709,6917.869,95.437,540.535,538.932,0.0
50820.0,STARLINK-3339,PAYLOAD,2024-06-18 20:48:57,15.08830621,0.0001258,53.2179,112.0156,92.1165,267.9971,2.2292e-05,6.7e-07,0.0,0 STARLINK-3339,1 50820U 22001T   24170.86733219  .00000067  00000-0  22292-4 0  9997,2 50820  53.2179 112.0156 0001258  92.1165 267.9971 15.08830621136757,6917.909,95.438,540.644,538.904,0.0
50820.0,STARLINK-3339,PAYLOAD,2024-06-19 03:10:29,15.08836947,0.0001327,53.2182,110.8273,95.3656,264.7488,6.8961e-05,8.1e-06,0.0,0 STARLINK-3339,1 50820U 22001T   24171.13228768  .00000810  00000-0  68961-4 0  9995,2 50820  53.2182 110.8273 0001327  95.3656 264.7488 15.08836947136793,6917.89,95.438,540.673,538.837,0.0
50820.0,STARLINK-3339,PAYLOAD,2024-06-19 12:42:47,15.08845268,0.0001352,53.2191,109.0432,93.8958,266.2189,0.00010333,1.357e-05,0.0,0 STARLINK-3339,1 50820U 22001T   24171.52972103  .00001357  00000-0  10333-3 0  9993,2 50820  53.2191 109.0432 0001352  93.8958 266.2189 15.08845268136854,6917.864,95.437,540.665,538.794,0.0
50820.0,STARLINK-3339,PAYLOAD,2024-06-20 03:01:17,15.08834409,0.0001599,53.2199,106.3721,103.496,256.6211,2.5039e-05,1.1e-06,0.0,0 STARLINK-3339,1 50820U 22001T   24172.12589268  .00000110  00000-0  25039-4 0  9992,2 50820  53.2199 106.3721 0001599 103.4960 256.6211 15.08834409136941,6917.897,95.438,540.869,538.656,0.0
50820.0,STARLINK-3339,PAYLOAD,2024-06-20 12:33:35,15.08843982,0.0001476,53.2194,104.5817,86.5483,273.5678,-1.2043e-05,-4.8e-06,0.0,0 STARLINK-3339,1 50820U 22001T   24172.52332747 -.00000480  00000-0 -12043-4 0  9997,2 50820  53.2194 104.5817 0001476  86.5483 273.5678 15.08843982135723,6917.868,95.437,540.754,538.712,0.0
50820.0,STARLINK-3339,PAYLOAD,2024-06-21 04:27:27,15.08834648,0.0001622,53.2197,101.6095,90.8547,269.2631,-1.3719e-05,-5.06e-06,0.0,0 STARLINK-3339,1 50820U 22001T   24173.18573600 -.00000506  00000-0 -13719-4 0  9995,2 50820  53.2197 101.6095 0001622  90.8547 269.2631 15.08834648137108,6917.897,95.438,540.884,538.64,0.0
50820.0,STARLINK-3339,PAYLOAD,2024-06-22 02:42:51,15.08838873,0.0001388,53.2184,97.4449,94.2003,265.9148,2.1035e-05,4.7e-07,0.0,0 STARLINK-3339,1 50820U 22001T   24174.11309322  .00000047  00000-0  21035-4 0  9995,2 50820  53.2184  97.4449 0001388  94.2003 265.9148 15.08838873135965,6917.884,95.438,540.709,538.789,0.0
50820.0,STARLINK-3339,PAYLOAD,2024-06-22 18:36:41,15.088694,0.0001446,53.2186,94.4694,89.0352,271.0806,-0.00034079,-5.712e-05,0.0,0 STARLINK-3339,1 50820U 22001T   24174.77548210 -.00005712  00000-0 -34079-3 0  9995,2 50820  53.2186  94.4694 0001446  89.0352 271.0806 15.08869400137343,6917.791,95.436,540.656,538.655,0.0
50820.0,STARLINK-3339,PAYLOAD,2024-06-23 04:09:01,15.08843263,0.0001329,53.218,92.6858,89.7189,270.3955,7.5292e-05,9.11e-06,0.0,0 STARLINK-3339,1 50820U 22001T   24175.17292915  .00000911  00000-0  75292-4 0  9995,2 50820  53.2180  92.6858 0001329  89.7189 270.3955 15.08843263137407,6917.87,95.437,540.655,538.816,0.0
50820.0,STARLINK-3339,PAYLOAD,2024-06-23 21:38:15,15.0884193,0.0001279,53.2174,89.4147,92.6291,267.4848,2.9133e-05,1.76e-06,0.0,0 STARLINK-3339,1 50820U 22001T   24175.90157041  .00000176  00000-0  29133-4 0  9992,2 50820  53.2174  89.4147 0001279  92.6291 267.4848 15.08841930136233,6917.874,95.437,540.624,538.855,0.0
50820.0,STARLINK-3339,PAYLOAD,2024-06-24 00:49:01,15.08843041,0.0001313,53.2178,88.8201,91.2187,268.8955,3.7974e-05,3.17e-06,0.0,0 STARLINK-3339,1 50820U 22001T   24176.03404928  .00000317  00000-0  37974-4 0  9995,2 50820  53.2178  88.8201 0001313  91.2187 268.8955 15.08843041136250,6917.871,95.437,540.644,538.828,0.0
50820.0,STARLINK-3339,PAYLOAD,2024-06-24 21:29:02,15.08839055,0.0001442,53.2182,84.9544,106.1245,253.9906,-1.1192e-05,-4.66e-06,0.0,0 STARLINK-3339,1 50820U 22001T   24176.89517206 -.00000466  00000-0 -11192-4 0  9994,2 50820  53.2182  84.9544 0001442 106.1245 253.9906 15.08839055137663,6917.883,95.438,540.746,538.751,0.0
50820.0,STARLINK-3339,PAYLOAD,2024-06-25 00:39:49,15.08837558,0.0001393,53.2182,84.3597,105.5022,254.6124,-2.5785e-05,-6.98e-06,0.0,0 STARLINK-3339,1 50820U 22001T   24177.02765345 -.00000698  00000-0 -25785-4 0  9999,2 50820  53.2182  84.3597 0001393 105.5022 254.6124 15.08837558136403,6917.888,95.438,540.717,538.789,0.0
50820.0,STARLINK-3339,PAYLOAD,2024-06-25 22:55:13,15.08838985,0.0001339,53.2181,80.1979,98.6232,261.4912,1.6032e-05,-3.3e-07,0.0,0 STARLINK-3339,1 50820U 22001T   24177.95501223 -.00000033  00000-0  16032-4 0  9991,2 50820  53.2181  80.1979 0001339  98.6232 261.4912 15.08838985136546,6917.883,95.438,540.675,538.822,0.0
50820.0,STARLINK-3339,PAYLOAD,2024-06-26 00:30:36,15.08840237,0.0001357,53.2183,79.9006,99.3916,260.723,2.5538e-05,1.19e-06,0.0,0 STARLINK-3339,1 50820U 22001T   24178.02125112  .00000119  00000-0  25538-4 0  9994,2 50820  53.2183  79.9006 0001357  99.3916 260.7230 15.08840237137833,6917.88,95.438,540.683,538.806,0.0
50820.0,STARLINK-3339,PAYLOAD,2024-06-26 22:46:00,15.08830012,0.0001393,53.2185,75.7413,105.6279,254.4867,1.3534e-06,-2.66e-06,0.0,0 STARLINK-3339,1 50820U 22001T   24178.94862134 -.00000266  00000-0  13534-5 0  9995,2 50820  53.2185  75.7413 0001393 105.6279 254.4867 15.08830012136693,6917.911,95.438,540.74,538.812,0.0
50820.0,STARLINK-3339,PAYLOAD,2024-06-27 22:36:48,15.08838321,0.0001189,53.2171,71.2763,76.4616,283.6509,-2.9431e-05,-7.56e-06,0.0,0 STARLINK-3339,1 50820U 22001T   24179.94222345 -.00000756  00000-0 -29431-4 0  9997,2 50820  53.2171  71.2763 0001189  76.4616 283.6509 15.08838321136845,6917.886,95.438,540.573,538.928,0.0
50820.0,STARLINK-3339,PAYLOAD,2024-06-28 00:12:10,15.08845045,0.0001163,53.2176,70.982,97.9409,262.1715,8.8697e-05,1.124e-05,0.0,0 STARLINK-3339,1 50820U 22001T   24180.00845471  .00001124  00000-0  88697-4 0  9994,2 50820  53.2176  70.9820 0001163  97.9409 262.1715 15.08845045138136,6917.865,95.437,540.535,538.925,0.0
50820.0,STARLINK-3339,PAYLOAD,2024-06-28 09:44:28,15.08858105,0.0001337,53.2172,69.1938,66.3017,293.8115,0.0001314,1.805e-05,0.0,0 STARLINK-3339,1 50820U 22001T   24180.40588308  .00001805  00000-0  13140-3 0  9997,2 50820  53.2172  69.1938 0001337  66.3017 293.8115 15.08858105138192,6917.825,95.436,540.615,538.765,0.0
50820.0,STARLINK-3339,PAYLOAD,2024-06-28 20:52:12,15.08826862,8.96e-05,53.2172,67.1126,74.4107,285.6984,-1.1712e-05,-4.74e-06,0.0,0 STARLINK-3339,1 50820U 22001T   24180.86958778 -.00000474  00000-0 -11712-4 0  9996,2 50820  53.2172  67.1126 0000896  74.4107 285.6984 15.08826862138264,6917.921,95.438,540.405,539.166,0.0
50820.0,STARLINK-3339,PAYLOAD,2024-06-28 22:27:35,15.088315,0.0001268,53.2166,66.8159,76.3717,283.7416,2.1249e-05,5e-07,0.0,0 STARLINK-3339,1 50820U 22001T   24180.93582512  .00000050  00000-0  21249-4 0  9997,2 50820  53.2166  66.8159 0001268  76.3717 283.7416 15.08831500136993,6917.906,95.438,540.649,538.894,0.0
50820.0,STARLINK-3339,PAYLOAD,2024-06-29 00:02:57,15.08845331,0.0001028,53.2171,66.5178,100.5071,259.6037,0.00013804,1.91e-05,0.0,0 STARLINK-3339,1 50820U 22001T   24181.00205178  .00001910  00000-0  13804-3 0  9999,2 50820  53.2171  66.5178 0001028 100.5071 259.6037 15.08845331138286,6917.864,95.437,540.44,539.018,0.0
